GLOBALSTAR M024         
1 25883U 99043A   25289.58030733 -.00000036  00000+0  10277-2 0  9994
2 25883  51.9986 106.7134 0000592 346.7235 116.4857 11.10170379128344
GLOBALSTAR M027         
1 25884U 99043B   25289.42062986 -.00000014  00000+0  18866-2 0  9991
2 25884  52.0195 188.4944 0020871 185.4349 174.6220 11.04372740154631
GLOBALSTAR M054         
1 25885U 99043C   25289.28672934 -.00000050  00000+0  55168-3 0  9993
2 25885  52.0137 295.7707 0005366  24.7527 348.7472 11.39220887132857
GLOBALSTAR M053         
1 25886U 99043D   25289.62720435 -.00000064  00000+0  14701-3 0  9995
2 25886  51.9971 248.7855 0003320 298.3928 232.0704 11.27667670133144
GLOBALSTAR M058         
1 25907U 99049A   25289.27328343 -.00000077  00000+0  10255-3 0  9992
2 25907  51.9916 145.8420 0002507 127.3148 232.7915 11.93203003555994
GLOBALSTAR M050         
1 25908U 99049B   25289.57628900  .00000019  00000+0  12150-2 0  9998
2 25908  51.9964 143.6395 0008104 275.6231 168.1419 12.07459052162857
GLOBALSTAR M033         
1 25909U 99049C   25289.49383187 -.00000187  00000+0 -91771-3 0  9990
2 25909  51.9942   7.3169 0014287 153.5412 206.6167 12.20294645550559
GLOBALSTAR M055         
1 25910U 99049D   25289.47559193 -.00000064  00000+0  25921-3 0  9999
2 25910  52.0049  12.2112 0006981  28.2856 331.8374 12.29433797183203
